[
    {
        "OBJECT_NAME": "SL-16 R/B",
        "OBJECT_ID": "2000-006B",
        "EPOCH": "2026-04-17T03:56:21.529248",
        "MEAN_MOTION": 14.15828619,
        "ECCENTRICITY": 0.00147286,
        "INCLINATION": 71.0044,
        "RA_OF_ASC_NODE": 16.937,
        "ARG_OF_PERICENTER": 128.0322,
        "MEAN_ANOMALY": 232.2133,
        "EPHEMERIS_TYPE": 0,
        "CLASSIFICATION_TYPE": "U",
        "NORAD_CAT_ID": 26070,
        "ELEMENT_SET_NO": 999,
        "REV_AT_EPOCH": 35400,
        "BSTAR": -6.2469873e-05,
        "MEAN_MOTION_DOT": -1.71e-06,
        "MEAN_MOTION_DDOT": 0
    },
    {
        "OBJECT_NAME": "TITAN 4B R/B",
        "OBJECT_ID": "2000-047B",
        "EPOCH": "2026-04-17T06:06:01.487232",
        "MEAN_MOTION": 15.09873112,
        "ECCENTRICITY": 0.00415381,
        "INCLINATION": 67.9867,
        "RA_OF_ASC_NODE": 292.0405,
        "ARG_OF_PERICENTER": 350.9487,
        "MEAN_ANOMALY": 9.0908,
        "EPHEMERIS_TYPE": 0,
        "CLASSIFICATION_TYPE": "U",
        "NORAD_CAT_ID": 26474,
        "ELEMENT_SET_NO": 999,
        "REV_AT_EPOCH": 39873,
        "BSTAR": 0.00011063726,
        "MEAN_MOTION_DOT": 1.691e-05,
        "MEAN_MOTION_DDOT": 0
    },
    {
        "OBJECT_NAME": "ENVISAT",
        "OBJECT_ID": "2002-009A",
        "EPOCH": "2026-04-17T06:59:48.730272",
        "MEAN_MOTION": 14.39049797,
        "ECCENTRICITY": 0.00011401,
        "INCLINATION": 98.3788,
        "RA_OF_ASC_NODE": 59.9853,
        "ARG_OF_PERICENTER": 84.5951,
        "MEAN_ANOMALY": 81.9815,
        "EPHEMERIS_TYPE": 0,
        "CLASSIFICATION_TYPE": "U",
        "NORAD_CAT_ID": 27386,
        "ELEMENT_SET_NO": 999,
        "REV_AT_EPOCH": 26472,
        "BSTAR": 2.5937759e-05,
        "MEAN_MOTION_DOT": 3.7e-07,
        "MEAN_MOTION_DDOT": 0
    },
    {
        "OBJECT_NAME": "IDEFIX & ARIANE 42P R/B",
        "OBJECT_ID": "2002-021B",
        "EPOCH": "2026-04-16T16:07:22.763136",
        "MEAN_MOTION": 14.31051257,
        "ECCENTRICITY": 0.00129934,
        "INCLINATION": 98.5912,
        "RA_OF_ASC_NODE": 44.8345,
        "ARG_OF_PERICENTER": 76.6548,
        "MEAN_ANOMALY": 283.6083,
        "EPHEMERIS_TYPE": 0,
        "CLASSIFICATION_TYPE": "U",
        "NORAD_CAT_ID": 27422,
        "ELEMENT_SET_NO": 999,
        "REV_AT_EPOCH": 24945,
        "BSTAR": 6.730492e-05,
        "MEAN_MOTION_DOT": 1.34e-06,
        "MEAN_MOTION_DDOT": 0
    },
    {
        "OBJECT_NAME": "AQUA",
        "OBJECT_ID": "2002-022A",
        "EPOCH": "2026-04-17T07:09:43.279776",
        "MEAN_MOTION": 14.62061281,
        "ECCENTRICITY": 0.00018385,
        "INCLINATION": 98.4235,
        "RA_OF_ASC_NODE": 75.386,
        "ARG_OF_PERICENTER": 105.0931,
        "MEAN_ANOMALY": 31.5354,
        "EPHEMERIS_TYPE": 0,
        "CLASSIFICATION_TYPE": "U",
        "NORAD_CAT_ID": 27424,
        "ELEMENT_SET_NO": 999,
        "REV_AT_EPOCH": 27437,
        "BSTAR": 0.00011377231,
        "MEAN_MOTION_DOT": 5.22e-06,
        "MEAN_MOTION_DDOT": 0
    },
    {
        "OBJECT_NAME": "CZ-4B R/B",
        "OBJECT_ID": "2002-024C",
        "EPOCH": "2026-04-17T03:01:04.670400",
        "MEAN_MOTION": 14.14554388,
        "ECCENTRICITY": 0.00490342,
        "INCLINATION": 98.8761,
        "RA_OF_ASC_NODE": 160.3242,
        "ARG_OF_PERICENTER": 273.8774,
        "MEAN_ANOMALY": 140.1522,
        "EPHEMERIS_TYPE": 0,
        "CLASSIFICATION_TYPE": "U",
        "NORAD_CAT_ID": 27432,
        "ELEMENT_SET_NO": 999,
        "REV_AT_EPOCH": 23467,
        "BSTAR": 3.7726803e-05,
        "MEAN_MOTION_DOT": 2.8e-07,
        "MEAN_MOTION_DDOT": 0
    },
    {
        "OBJECT_NAME": "MIDORI II (ADEOS-II)",
        "OBJECT_ID": "2002-056A",
        "EPOCH": "2026-04-16T14:32:27.817728",
        "MEAN_MOTION": 14.29313519,
        "ECCENTRICITY": 3.35e-05,
        "INCLINATION": 98.7831,
        "RA_OF_ASC_NODE": 65.3616,
        "ARG_OF_PERICENTER": 143.369,
        "MEAN_ANOMALY": 216.7514,
        "EPHEMERIS_TYPE": 0,
        "CLASSIFICATION_TYPE": "U",
        "NORAD_CAT_ID": 27597,
        "ELEMENT_SET_NO": 999,
        "REV_AT_EPOCH": 21571,
        "BSTAR": 8.1764406e-05,
        "MEAN_MOTION_DOT": 1.63e-06,
        "MEAN_MOTION_DDOT": 0
    },
    {
        "OBJECT_NAME": "H-2A R/B",
        "OBJECT_ID": "2002-056E",
        "EPOCH": "2026-04-17T07:40:57.009792",
        "MEAN_MOTION": 14.33788036,
        "ECCENTRICITY": 0.0071171,
        "INCLINATION": 98.3266,
        "RA_OF_ASC_NODE": 66.2312,
        "ARG_OF_PERICENTER": 47.199,
        "MEAN_ANOMALY": 122.1263,
        "EPHEMERIS_TYPE": 0,
        "CLASSIFICATION_TYPE": "U",
        "NORAD_CAT_ID": 27601,
        "ELEMENT_SET_NO": 999,
        "REV_AT_EPOCH": 21964,
        "BSTAR": 8.6416766e-05,
        "MEAN_MOTION_DOT": 2.06e-06,
        "MEAN_MOTION_DDOT": 0
    },
    {
        "OBJECT_NAME": "CZ-4B R/B",
        "OBJECT_ID": "2003-049C",
        "EPOCH": "2026-04-16T13:10:57.264960",
        "MEAN_MOTION": 14.55053567,
        "ECCENTRICITY": 0.00492226,
        "INCLINATION": 98.6899,
        "RA_OF_ASC_NODE": 102.9481,
        "ARG_OF_PERICENTER": 115.5819,
        "MEAN_ANOMALY": 245.0476,
        "EPHEMERIS_TYPE": 0,
        "CLASSIFICATION_TYPE": "U",
        "NORAD_CAT_ID": 28059,
        "ELEMENT_SET_NO": 999,
        "REV_AT_EPOCH": 19210,
        "BSTAR": 6.4554535e-05,
        "MEAN_MOTION_DOT": 2.31e-06,
        "MEAN_MOTION_DDOT": 0
    },
    {
        "OBJECT_NAME": "CZ-2C R/B",
        "OBJECT_ID": "2004-012C",
        "EPOCH": "2026-04-17T04:20:58.100064",
        "MEAN_MOTION": 15.69283229,
        "ECCENTRICITY": 0.0013981,
        "INCLINATION": 97.7153,
        "RA_OF_ASC_NODE": 176.2488,
        "ARG_OF_PERICENTER": 165.101,
        "MEAN_ANOMALY": 195.0665,
        "EPHEMERIS_TYPE": 0,
        "CLASSIFICATION_TYPE": "U",
        "NORAD_CAT_ID": 28222,
        "ELEMENT_SET_NO": 999,
        "REV_AT_EPOCH": 21030,
        "BSTAR": 0.00038029188,
        "MEAN_MOTION_DOT": 0.00044575,
        "MEAN_MOTION_DDOT": 0
    },
    {
        "OBJECT_NAME": "SL-16 R/B",
        "OBJECT_ID": "2004-021B",
        "EPOCH": "2026-04-17T03:16:56.051904",
        "MEAN_MOTION": 14.14605884,
        "ECCENTRICITY": 0.00064359,
        "INCLINATION": 71.0002,
        "RA_OF_ASC_NODE": 151.8118,
        "ARG_OF_PERICENTER": 319.7649,
        "MEAN_ANOMALY": 40.2996,
        "EPHEMERIS_TYPE": 0,
        "CLASSIFICATION_TYPE": "U",
        "NORAD_CAT_ID": 28353,
        "ELEMENT_SET_NO": 999,
        "REV_AT_EPOCH": 12827,
        "BSTAR": 1.5187724e-05,
        "MEAN_MOTION_DOT": -1.8e-07,
        "MEAN_MOTION_DDOT": 0
    },
    {
        "OBJECT_NAME": "CZ-4B R/B",
        "OBJECT_ID": "2004-035C",
        "EPOCH": "2026-04-17T01:16:38.425728",
        "MEAN_MOTION": 15.29705531,
        "ECCENTRICITY": 0.00314475,
        "INCLINATION": 97.3432,
        "RA_OF_ASC_NODE": 140.8403,
        "ARG_OF_PERICENTER": 189.1395,
        "MEAN_ANOMALY": 170.9278,
        "EPHEMERIS_TYPE": 0,
        "CLASSIFICATION_TYPE": "U",
        "NORAD_CAT_ID": 28415,
        "ELEMENT_SET_NO": 999,
        "REV_AT_EPOCH": 18577,
        "BSTAR": 0.00016529847,
        "MEAN_MOTION_DOT": 4.749e-05,
        "MEAN_MOTION_DDOT": 0
    },
    {
        "OBJECT_NAME": "CZ-2C R/B",
        "OBJECT_ID": "2004-046B",
        "EPOCH": "2026-04-17T04:34:18.321312",
        "MEAN_MOTION": 14.27007331,
        "ECCENTRICITY": 0.0140299,
        "INCLINATION": 98.1973,
        "RA_OF_ASC_NODE": 19.7747,
        "ARG_OF_PERICENTER": 41.4172,
        "MEAN_ANOMALY": 319.7545,
        "EPHEMERIS_TYPE": 0,
        "CLASSIFICATION_TYPE": "U",
        "NORAD_CAT_ID": 28480,
        "ELEMENT_SET_NO": 999,
        "REV_AT_EPOCH": 11399,
        "BSTAR": 5.6166361e-05,
        "MEAN_MOTION_DOT": 1.11e-06,
        "MEAN_MOTION_DDOT": 0
    }
]