SL-16 R/B               
1 26070U 00006B   26107.16413807 -.00000171  00000+0 -62470-4 0  9990
2 26070  71.0044  16.9370 0014728 128.0322 232.2133 14.15828619354002
TITAN 4B R/B            
1 26474U 00047B   26107.25418388  .00001691  00000+0  11064-3 0  9990
2 26474  67.9867 292.0405 0041538 350.9487   9.0908 15.09873112398730
ENVISAT                 
1 27386U 02009A   26107.29153623  .00000037  00000+0  25938-4 0  9994
2 27386  98.3788  59.9853 0001140  84.5951  81.9815 14.39049797264724
IDEFIX & ARIANE 42P R/B 
1 27422U 02021B   26106.67179124  .00000134  00000+0  67305-4 0  9996
2 27422  98.5912  44.8345 0012993  76.6548 283.6083 14.31051257249454
AQUA                    
1 27424U 02022A   26107.29841759  .00000522  00000+0  11377-3 0  9996
2 27424  98.4235  75.3860 0001838 105.0931  31.5354 14.62061281274375
CZ-4B R/B               
1 27432U 02024C   26107.12574850  .00000028  00000+0  37727-4 0  9993
2 27432  98.8761 160.3242 0049034 273.8774 140.1522 14.14554388234675
MIDORI II (ADEOS-II)    
1 27597U 02056A   26106.60587752  .00000163  00000+0  81764-4 0  9997
2 27597  98.7831  65.3616 0000335 143.3690 216.7514 14.29313519215712
H-2A R/B                
1 27601U 02056E   26107.32010428  .00000206  00000+0  86417-4 0  9992
2 27601  98.3266  66.2312 0071171  47.1990 122.1263 14.33788036219641
CZ-4B R/B               
1 28059U 03049C   26106.54927390  .00000231  00000+0  64555-4 0  9998
2 28059  98.6899 102.9481 0049222 115.5819 245.0476 14.55053567192101
CZ-2C R/B               
1 28222U 04012C   26107.18122801  .00044575  00000+0  38029-3 0  9991
2 28222  97.7153 176.2488 0013981 165.1010 195.0665 15.69283229210307
SL-16 R/B               
1 28353U 04021B   26107.13675986 -.00000018  00000+0  15188-4 0  9995
2 28353  71.0002 151.8118 0006435 319.7649  40.2996 14.14605884128276
CZ-4B R/B               
1 28415U 04035C   26107.05322252  .00004749  00000+0  16530-3 0  9990
2 28415  97.3432 140.8403 0031447 189.1395 170.9278 15.29705531185775
CZ-2C R/B               
1 28480U 04046B   26107.19048983  .00000111  00000+0  56166-4 0  9994
2 28480  98.1973  19.7747 0140299  41.4172 319.7545 14.27007331113995
